{
  "type": "FeatureCollection",
  "name": "hitchhiker-stoop",
  "description": "One collectible on the pavement outside Hitchhiker House. Pin id is the STAR objective title.",
  "features": [
    {
      "type": "Feature",
      "geometry": { "type": "Point", "coordinates": [-0.105181, 51.563743] },
      "properties": {
        "id": "hitchhiker-stoop",
        "title": "Hitchhiker House stoop",
        "trail": "hitchhiker-stoop",
        "questRole": "stoop",
        "dropKind": "stoop",
        "order": 0,
        "radiusM": 40,
        "place": "33 Vaudeville Court pavement",
        "imageUrl": "/icons/park-beacon.svg",
        "wikiSlug": "hitchhiker-stoop",
        "narrationText": "You are on the pavement at Hitchhiker House. Tap I'm here.",
        "directionHint": "St Thomas's Road, N4 2QG. Stand outside the door, not inside.",
        "notes": "starQuestId=e86e2c7d-7cdd-4542-b82d-7d1bd27b46df"
      }
    }
  ]
}
