{
  "type": "FeatureCollection",
  "features": [
    {
      "type": "Feature",
      "properties": {
        "name": "East Coast Main Line",
        "source": "OpenStreetMap",
        "stationIndex": 28,
        "stationDistanceM": 1007.7862776245413
      },
      "geometry": {
        "type": "LineString",
        "coordinates": [
          [
            -0.1100269,
            51.5558914
          ],
          [
            -0.1095798,
            51.5563994
          ],
          [
            -0.1093398,
            51.556703
          ],
          [
            -0.108959,
            51.5571834
          ],
          [
            -0.1087932,
            51.5574047
          ],
          [
            -0.1086355,
            51.5576153
          ],
          [
            -0.1084398,
            51.5578933
          ],
          [
            -0.1083245,
            51.5580788
          ],
          [
            -0.1080206,
            51.5582983
          ],
          [
            -0.1079165,
            51.5584706
          ],
          [
            -0.1077247,
            51.5587508
          ],
          [
            -0.1074628,
            51.5590727
          ],
          [
            -0.1072856,
            51.5593062
          ],
          [
            -0.1071414,
            51.5595335
          ],
          [
            -0.1070388,
            51.559726
          ],
          [
            -0.1069278,
            51.5599566
          ],
          [
            -0.1067835,
            51.5602908
          ],
          [
            -0.1066113,
            51.5607583
          ],
          [
            -0.1065462,
            51.5609713
          ],
          [
            -0.1064577,
            51.5613118
          ],
          [
            -0.1064039,
            51.5615777
          ],
          [
            -0.1063605,
            51.5618323
          ],
          [
            -0.106322,
            51.5621109
          ],
          [
            -0.1062894,
            51.5624217
          ],
          [
            -0.1062313,
            51.5630898
          ],
          [
            -0.1062034,
            51.5633039
          ],
          [
            -0.1061491,
            51.5635766
          ],
          [
            -0.1060895,
            51.5638059
          ],
          [
            -0.1061338,
            51.5644585
          ],
          [
            -0.1060351,
            51.5652955
          ],
          [
            -0.105822,
            51.5654525
          ],
          [
            -0.1058141,
            51.5656918
          ],
          [
            -0.1058216,
            51.5662199
          ],
          [
            -0.1058225,
            51.5665992
          ],
          [
            -0.1058205,
            51.5669524
          ],
          [
            -0.1058024,
            51.5673898
          ],
          [
            -0.1057795,
            51.5676387
          ],
          [
            -0.1057253,
            51.5680425
          ],
          [
            -0.1056882,
            51.5683606
          ],
          [
            -0.1057281,
            51.5684573
          ],
          [
            -0.1056735,
            51.5688813
          ],
          [
            -0.1056167,
            51.5693015
          ],
          [
            -0.1055599,
            51.5697309
          ],
          [
            -0.1055253,
            51.5699913
          ],
          [
            -0.1054883,
            51.5702649
          ],
          [
            -0.1054443,
            51.5705996
          ],
          [
            -0.1054145,
            51.5708038
          ],
          [
            -0.1053687,
            51.5711589
          ],
          [
            -0.105334,
            51.5714652
          ],
          [
            -0.1052739,
            51.5718808
          ],
          [
            -0.1052231,
            51.572246
          ],
          [
            -0.10518,
            51.5726064
          ],
          [
            -0.1051402,
            51.5729421
          ],
          [
            -0.1050866,
            51.5733694
          ],
          [
            -0.1050504,
            51.5737392
          ],
          [
            -0.1049957,
            51.5742427
          ],
          [
            -0.1049641,
            51.5745339
          ],
          [
            -0.1049465,
            51.5748764
          ],
          [
            -0.1049221,
            51.5752684
          ]
        ]
      }
    }
  ]
}